{
    "links": {
        "self": "http://www.neowsapp.com/rest/v1/neo/54017247?api_key=iIulBulltgU6a56xZRHN4H3l9WmuAYTsLGpBGhQ2"
    },
    "id": "54017247",
    "neo_reference_id": "54017247",
    "name": "(2020 KY4)",
    "designation": "2020 KY4",
    "nasa_jpl_url": "http://ssd.jpl.nasa.gov/sbdb.cgi?sstr=54017247",
    "absolute_magnitude_h": 27.183,
    "estimated_diameter": {
        "kilometers": {
            "estimated_diameter_min": 0.0097264638,
            "estimated_diameter_max": 0.0217490343
        },
        "meters": {
            "estimated_diameter_min": 9.7264638411,
            "estimated_diameter_max": 21.7490343294
        },
        "miles": {
            "estimated_diameter_min": 0.0060437426,
            "estimated_diameter_max": 0.0135142192
        },
        "feet": {
            "estimated_diameter_min": 31.9109716285,
            "estimated_diameter_max": 71.3551017893
        }
    },
    "is_potentially_hazardous_asteroid": false,
    "close_approach_data": [
        {
            "close_approach_date": "1996-10-18",
            "close_approach_date_full": "1996-Oct-18 17:08",
            "epoch_date_close_approach": 845658480000,
            "relative_velocity": {
                "kilometers_per_second": "11.0844467562",
                "kilometers_per_hour": "39904.0083224744",
                "miles_per_hour": "24794.7989490397"
            },
            "miss_distance": {
                "astronomical": "0.0399282535",
                "lunar": "15.5320906115",
                "kilometers": "5973181.676420045",
                "miles": "3711562.986264821"
            },
            "orbiting_body": "Mars"
        },
        {
            "close_approach_date": "2001-08-31",
            "close_approach_date_full": "2001-Aug-31 15:54",
            "epoch_date_close_approach": 999273240000,
            "relative_velocity": {
                "kilometers_per_second": "9.6336259159",
                "kilometers_per_hour": "34681.0532973914",
                "miles_per_hour": "21549.4578113708"
            },
            "miss_distance": {
                "astronomical": "0.0875130928",
                "lunar": "34.0425930992",
                "kilometers": "13091772.279992336",
                "miles": "8134850.0767767968"
            },
            "orbiting_body": "Mars"
        },
        {
            "close_approach_date": "2020-05-26",
            "close_approach_date_full": "2020-May-26 12:39",
            "epoch_date_close_approach": 1590496740000,
            "relative_velocity": {
                "kilometers_per_second": "6.7029578931",
                "kilometers_per_hour": "24130.6484152363",
                "miles_per_hour": "14993.8465111228"
            },
            "miss_distance": {
                "astronomical": "0.0107249884",
                "lunar": "4.1720204876",
                "kilometers": "1604435.420414708",
                "miles": "996949.9410626504"
            },
            "orbiting_body": "Earth"
        }
    ],
    "orbital_data": {
        "orbit_id": "3",
        "orbit_determination_date": "2020-05-29 06:08:13",
        "first_observation_date": "2020-05-26",
        "last_observation_date": "2020-05-28",
        "data_arc_in_days": 2,
        "observations_used": 32,
        "orbit_uncertainty": "7",
        "minimum_orbit_intersection": ".00280655",
        "jupiter_tisserand_invariant": "4.177",
        "epoch_osculation": "2459000.5",
        "eccentricity": ".3966078261319769",
        "semi_major_axis": "1.654830662989644",
        "inclination": "4.03715781535175",
        "ascending_node_longitude": "63.17388123366467",
        "orbital_period": "777.550788522872",
        "perihelion_distance": ".9985118711247832",
        "perihelion_argument": "159.2115408276299",
        "aphelion_distance": "2.311149454854506",
        "perihelion_time": "2458976.319821563554",
        "mean_anomaly": "11.19523555966969",
        "mean_motion": ".4629922640602022",
        "equinox": "J2000",
        "orbit_class": {
            "orbit_class_type": "APO",
            "orbit_class_description": "Near-Earth asteroid orbits which cross the Earth’s orbit similar to that of 1862 Apollo",
            "orbit_class_range": "a (semi-major axis) > 1.0 AU; q (perihelion) < 1.017 AU"
        }
    },
    "is_sentry_object": false
}